<?xml version="1.0" encoding="UTF-8"?>
<gpx version="1.1" creator="test"><trk><name>Skiberg Ronde</name><trkseg>
<trkpt lat="47.000000" lon="11.000000"><ele>800.0</ele></trkpt>
<trkpt lat="47.000030" lon="11.000020"><ele>801.5</ele></trkpt>
<trkpt lat="47.000060" lon="11.000040"><ele>803.0</ele></trkpt>
<trkpt lat="47.000090" lon="11.000060"><ele>804.5</ele></trkpt>
<trkpt lat="47.000120" lon="11.000080"><ele>806.0</ele></trkpt>
<trkpt lat="47.000150" lon="11.000100"><ele>807.5</ele></trkpt>
<trkpt lat="47.000180" lon="11.000120"><ele>809.0</ele></trkpt>
<trkpt lat="47.000210" lon="11.000140"><ele>810.5</ele></trkpt>
<trkpt lat="47.000240" lon="11.000160"><ele>812.0</ele></trkpt>
<trkpt lat="47.000270" lon="11.000180"><ele>813.5</ele></trkpt>
<trkpt lat="47.000300" lon="11.000200"><ele>815.0</ele></trkpt>
<trkpt lat="47.000330" lon="11.000220"><ele>816.5</ele></trkpt>
<trkpt lat="47.000360" lon="11.000240"><ele>818.0</ele></trkpt>
<trkpt lat="47.000390" lon="11.000260"><ele>819.5</ele></trkpt>
<trkpt lat="47.000420" lon="11.000280"><ele>821.0</ele></trkpt>
<trkpt lat="47.000450" lon="11.000300"><ele>822.5</ele></trkpt>
<trkpt lat="47.000480" lon="11.000320"><ele>824.0</ele></trkpt>
<trkpt lat="47.000510" lon="11.000340"><ele>825.5</ele></trkpt>
<trkpt lat="47.000540" lon="11.000360"><ele>827.0</ele></trkpt>
<trkpt lat="47.000570" lon="11.000380"><ele>828.5</ele></trkpt>
<trkpt lat="47.000600" lon="11.000400"><ele>830.0</ele></trkpt>
<trkpt lat="47.000630" lon="11.000420"><ele>831.5</ele></trkpt>
<trkpt lat="47.000660" lon="11.000440"><ele>833.0</ele></trkpt>
<trkpt lat="47.000690" lon="11.000460"><ele>834.5</ele></trkpt>
<trkpt lat="47.000720" lon="11.000480"><ele>836.0</ele></trkpt>
<trkpt lat="47.000750" lon="11.000500"><ele>837.5</ele></trkpt>
<trkpt lat="47.000780" lon="11.000520"><ele>839.0</ele></trkpt>
<trkpt lat="47.000810" lon="11.000540"><ele>840.5</ele></trkpt>
<trkpt lat="47.000840" lon="11.000560"><ele>842.0</ele></trkpt>
<trkpt lat="47.000870" lon="11.000580"><ele>843.5</ele></trkpt>
<trkpt lat="47.000900" lon="11.000600"><ele>845.0</ele></trkpt>
<trkpt lat="47.000930" lon="11.000620"><ele>846.5</ele></trkpt>
<trkpt lat="47.000960" lon="11.000640"><ele>848.0</ele></trkpt>
<trkpt lat="47.000990" lon="11.000660"><ele>849.5</ele></trkpt>
<trkpt lat="47.001020" lon="11.000680"><ele>851.0</ele></trkpt>
<trkpt lat="47.001050" lon="11.000700"><ele>852.5</ele></trkpt>
<trkpt lat="47.001080" lon="11.000720"><ele>854.0</ele></trkpt>
<trkpt lat="47.001110" lon="11.000740"><ele>855.5</ele></trkpt>
<trkpt lat="47.001140" lon="11.000760"><ele>857.0</ele></trkpt>
<trkpt lat="47.001170" lon="11.000780"><ele>858.5</ele></trkpt>
<trkpt lat="47.001200" lon="11.000800"><ele>860.0</ele></trkpt>
<trkpt lat="47.001230" lon="11.000820"><ele>861.5</ele></trkpt>
<trkpt lat="47.001260" lon="11.000840"><ele>863.0</ele></trkpt>
<trkpt lat="47.001290" lon="11.000860"><ele>864.5</ele></trkpt>
<trkpt lat="47.001320" lon="11.000880"><ele>866.0</ele></trkpt>
<trkpt lat="47.001350" lon="11.000900"><ele>867.5</ele></trkpt>
<trkpt lat="47.001380" lon="11.000920"><ele>869.0</ele></trkpt>
<trkpt lat="47.001410" lon="11.000940"><ele>870.5</ele></trkpt>
<trkpt lat="47.001440" lon="11.000960"><ele>872.0</ele></trkpt>
<trkpt lat="47.001470" lon="11.000980"><ele>873.5</ele></trkpt>
<trkpt lat="47.001500" lon="11.001000"><ele>875.0</ele></trkpt>
<trkpt lat="47.001530" lon="11.001020"><ele>876.5</ele></trkpt>
<trkpt lat="47.001560" lon="11.001040"><ele>878.0</ele></trkpt>
<trkpt lat="47.001590" lon="11.001060"><ele>879.5</ele></trkpt>
<trkpt lat="47.001620" lon="11.001080"><ele>881.0</ele></trkpt>
<trkpt lat="47.001650" lon="11.001100"><ele>882.5</ele></trkpt>
<trkpt lat="47.001680" lon="11.001120"><ele>884.0</ele></trkpt>
<trkpt lat="47.001710" lon="11.001140"><ele>885.5</ele></trkpt>
<trkpt lat="47.001740" lon="11.001160"><ele>887.0</ele></trkpt>
<trkpt lat="47.001770" lon="11.001180"><ele>888.5</ele></trkpt>
<trkpt lat="47.001800" lon="11.001200"><ele>890.0</ele></trkpt>
<trkpt lat="47.001830" lon="11.001220"><ele>891.5</ele></trkpt>
<trkpt lat="47.001860" lon="11.001240"><ele>893.0</ele></trkpt>
<trkpt lat="47.001890" lon="11.001260"><ele>894.5</ele></trkpt>
<trkpt lat="47.001920" lon="11.001280"><ele>896.0</ele></trkpt>
<trkpt lat="47.001950" lon="11.001300"><ele>897.5</ele></trkpt>
<trkpt lat="47.001980" lon="11.001320"><ele>899.0</ele></trkpt>
<trkpt lat="47.002010" lon="11.001340"><ele>900.5</ele></trkpt>
<trkpt lat="47.002040" lon="11.001360"><ele>902.0</ele></trkpt>
<trkpt lat="47.002070" lon="11.001380"><ele>903.5</ele></trkpt>
<trkpt lat="47.002100" lon="11.001400"><ele>905.0</ele></trkpt>
<trkpt lat="47.002130" lon="11.001420"><ele>906.5</ele></trkpt>
<trkpt lat="47.002160" lon="11.001440"><ele>908.0</ele></trkpt>
<trkpt lat="47.002190" lon="11.001460"><ele>909.5</ele></trkpt>
<trkpt lat="47.002220" lon="11.001480"><ele>911.0</ele></trkpt>
<trkpt lat="47.002250" lon="11.001500"><ele>912.5</ele></trkpt>
<trkpt lat="47.002280" lon="11.001520"><ele>914.0</ele></trkpt>
<trkpt lat="47.002310" lon="11.001540"><ele>915.5</ele></trkpt>
<trkpt lat="47.002340" lon="11.001560"><ele>917.0</ele></trkpt>
<trkpt lat="47.002370" lon="11.001580"><ele>918.5</ele></trkpt>
<trkpt lat="47.002400" lon="11.001600"><ele>920.0</ele></trkpt>
<trkpt lat="47.002430" lon="11.001620"><ele>921.5</ele></trkpt>
<trkpt lat="47.002460" lon="11.001640"><ele>923.0</ele></trkpt>
<trkpt lat="47.002490" lon="11.001660"><ele>924.5</ele></trkpt>
<trkpt lat="47.002520" lon="11.001680"><ele>926.0</ele></trkpt>
<trkpt lat="47.002550" lon="11.001700"><ele>927.5</ele></trkpt>
<trkpt lat="47.002580" lon="11.001720"><ele>929.0</ele></trkpt>
<trkpt lat="47.002610" lon="11.001740"><ele>930.5</ele></trkpt>
<trkpt lat="47.002640" lon="11.001760"><ele>932.0</ele></trkpt>
<trkpt lat="47.002670" lon="11.001780"><ele>933.5</ele></trkpt>
<trkpt lat="47.002700" lon="11.001800"><ele>935.0</ele></trkpt>
<trkpt lat="47.002730" lon="11.001820"><ele>936.5</ele></trkpt>
<trkpt lat="47.002760" lon="11.001840"><ele>938.0</ele></trkpt>
<trkpt lat="47.002790" lon="11.001860"><ele>939.5</ele></trkpt>
<trkpt lat="47.002820" lon="11.001880"><ele>941.0</ele></trkpt>
<trkpt lat="47.002850" lon="11.001900"><ele>942.5</ele></trkpt>
<trkpt lat="47.002880" lon="11.001920"><ele>944.0</ele></trkpt>
<trkpt lat="47.002910" lon="11.001940"><ele>945.5</ele></trkpt>
<trkpt lat="47.002940" lon="11.001960"><ele>947.0</ele></trkpt>
<trkpt lat="47.002970" lon="11.001980"><ele>948.5</ele></trkpt>
<trkpt lat="47.003000" lon="11.002000"><ele>950.0</ele></trkpt>
<trkpt lat="47.003030" lon="11.002020"><ele>951.5</ele></trkpt>
<trkpt lat="47.003060" lon="11.002040"><ele>953.0</ele></trkpt>
<trkpt lat="47.003090" lon="11.002060"><ele>954.5</ele></trkpt>
<trkpt lat="47.003120" lon="11.002080"><ele>956.0</ele></trkpt>
<trkpt lat="47.003150" lon="11.002100"><ele>957.5</ele></trkpt>
<trkpt lat="47.003180" lon="11.002120"><ele>959.0</ele></trkpt>
<trkpt lat="47.003210" lon="11.002140"><ele>960.5</ele></trkpt>
<trkpt lat="47.003240" lon="11.002160"><ele>962.0</ele></trkpt>
<trkpt lat="47.003270" lon="11.002180"><ele>963.5</ele></trkpt>
<trkpt lat="47.003300" lon="11.002200"><ele>965.0</ele></trkpt>
<trkpt lat="47.003330" lon="11.002220"><ele>966.5</ele></trkpt>
<trkpt lat="47.003360" lon="11.002240"><ele>968.0</ele></trkpt>
<trkpt lat="47.003390" lon="11.002260"><ele>969.5</ele></trkpt>
<trkpt lat="47.003420" lon="11.002280"><ele>971.0</ele></trkpt>
<trkpt lat="47.003450" lon="11.002300"><ele>972.5</ele></trkpt>
<trkpt lat="47.003480" lon="11.002320"><ele>974.0</ele></trkpt>
<trkpt lat="47.003510" lon="11.002340"><ele>975.5</ele></trkpt>
<trkpt lat="47.003540" lon="11.002360"><ele>977.0</ele></trkpt>
<trkpt lat="47.003570" lon="11.002380"><ele>978.5</ele></trkpt>
<trkpt lat="47.003600" lon="11.002400"><ele>980.0</ele></trkpt>
<trkpt lat="47.003630" lon="11.002420"><ele>981.5</ele></trkpt>
<trkpt lat="47.003660" lon="11.002440"><ele>983.0</ele></trkpt>
<trkpt lat="47.003690" lon="11.002460"><ele>984.5</ele></trkpt>
<trkpt lat="47.003720" lon="11.002480"><ele>986.0</ele></trkpt>
<trkpt lat="47.003750" lon="11.002500"><ele>987.5</ele></trkpt>
<trkpt lat="47.003780" lon="11.002520"><ele>989.0</ele></trkpt>
<trkpt lat="47.003810" lon="11.002540"><ele>990.5</ele></trkpt>
<trkpt lat="47.003840" lon="11.002560"><ele>992.0</ele></trkpt>
<trkpt lat="47.003870" lon="11.002580"><ele>993.5</ele></trkpt>
<trkpt lat="47.003900" lon="11.002600"><ele>995.0</ele></trkpt>
<trkpt lat="47.003930" lon="11.002620"><ele>996.5</ele></trkpt>
<trkpt lat="47.003960" lon="11.002640"><ele>998.0</ele></trkpt>
<trkpt lat="47.003990" lon="11.002660"><ele>999.5</ele></trkpt>
<trkpt lat="47.004020" lon="11.002680"><ele>1001.0</ele></trkpt>
<trkpt lat="47.004050" lon="11.002700"><ele>1002.5</ele></trkpt>
<trkpt lat="47.004080" lon="11.002720"><ele>1004.0</ele></trkpt>
<trkpt lat="47.004110" lon="11.002740"><ele>1005.5</ele></trkpt>
<trkpt lat="47.004140" lon="11.002760"><ele>1007.0</ele></trkpt>
<trkpt lat="47.004170" lon="11.002780"><ele>1008.5</ele></trkpt>
<trkpt lat="47.004200" lon="11.002800"><ele>1010.0</ele></trkpt>
<trkpt lat="47.004230" lon="11.002820"><ele>1011.5</ele></trkpt>
<trkpt lat="47.004260" lon="11.002840"><ele>1013.0</ele></trkpt>
<trkpt lat="47.004290" lon="11.002860"><ele>1014.5</ele></trkpt>
<trkpt lat="47.004320" lon="11.002880"><ele>1016.0</ele></trkpt>
<trkpt lat="47.004350" lon="11.002900"><ele>1017.5</ele></trkpt>
<trkpt lat="47.004380" lon="11.002920"><ele>1019.0</ele></trkpt>
<trkpt lat="47.004410" lon="11.002940"><ele>1020.5</ele></trkpt>
<trkpt lat="47.004440" lon="11.002960"><ele>1022.0</ele></trkpt>
<trkpt lat="47.004470" lon="11.002980"><ele>1023.5</ele></trkpt>
<trkpt lat="47.004500" lon="11.003000"><ele>1025.0</ele></trkpt>
<trkpt lat="47.004530" lon="11.003020"><ele>1026.5</ele></trkpt>
<trkpt lat="47.004560" lon="11.003040"><ele>1028.0</ele></trkpt>
<trkpt lat="47.004590" lon="11.003060"><ele>1029.5</ele></trkpt>
<trkpt lat="47.004620" lon="11.003080"><ele>1031.0</ele></trkpt>
<trkpt lat="47.004650" lon="11.003100"><ele>1032.5</ele></trkpt>
<trkpt lat="47.004680" lon="11.003120"><ele>1034.0</ele></trkpt>
<trkpt lat="47.004710" lon="11.003140"><ele>1035.5</ele></trkpt>
<trkpt lat="47.004740" lon="11.003160"><ele>1037.0</ele></trkpt>
<trkpt lat="47.004770" lon="11.003180"><ele>1038.5</ele></trkpt>
<trkpt lat="47.004800" lon="11.003200"><ele>1040.0</ele></trkpt>
<trkpt lat="47.004830" lon="11.003220"><ele>1041.5</ele></trkpt>
<trkpt lat="47.004860" lon="11.003240"><ele>1043.0</ele></trkpt>
<trkpt lat="47.004890" lon="11.003260"><ele>1044.5</ele></trkpt>
<trkpt lat="47.004920" lon="11.003280"><ele>1046.0</ele></trkpt>
<trkpt lat="47.004950" lon="11.003300"><ele>1047.5</ele></trkpt>
<trkpt lat="47.004980" lon="11.003320"><ele>1049.0</ele></trkpt>
<trkpt lat="47.005010" lon="11.003340"><ele>1050.5</ele></trkpt>
<trkpt lat="47.005040" lon="11.003360"><ele>1052.0</ele></trkpt>
<trkpt lat="47.005070" lon="11.003380"><ele>1053.5</ele></trkpt>
<trkpt lat="47.005100" lon="11.003400"><ele>1055.0</ele></trkpt>
<trkpt lat="47.005130" lon="11.003420"><ele>1056.5</ele></trkpt>
<trkpt lat="47.005160" lon="11.003440"><ele>1058.0</ele></trkpt>
<trkpt lat="47.005190" lon="11.003460"><ele>1059.5</ele></trkpt>
<trkpt lat="47.005220" lon="11.003480"><ele>1061.0</ele></trkpt>
<trkpt lat="47.005250" lon="11.003500"><ele>1062.5</ele></trkpt>
<trkpt lat="47.005280" lon="11.003520"><ele>1064.0</ele></trkpt>
<trkpt lat="47.005310" lon="11.003540"><ele>1065.5</ele></trkpt>
<trkpt lat="47.005340" lon="11.003560"><ele>1067.0</ele></trkpt>
<trkpt lat="47.005370" lon="11.003580"><ele>1068.5</ele></trkpt>
<trkpt lat="47.005400" lon="11.003600"><ele>1070.0</ele></trkpt>
<trkpt lat="47.005430" lon="11.003620"><ele>1071.5</ele></trkpt>
<trkpt lat="47.005460" lon="11.003640"><ele>1073.0</ele></trkpt>
<trkpt lat="47.005490" lon="11.003660"><ele>1074.5</ele></trkpt>
<trkpt lat="47.005520" lon="11.003680"><ele>1076.0</ele></trkpt>
<trkpt lat="47.005550" lon="11.003700"><ele>1077.5</ele></trkpt>
<trkpt lat="47.005580" lon="11.003720"><ele>1079.0</ele></trkpt>
<trkpt lat="47.005610" lon="11.003740"><ele>1080.5</ele></trkpt>
<trkpt lat="47.005640" lon="11.003760"><ele>1082.0</ele></trkpt>
<trkpt lat="47.005670" lon="11.003780"><ele>1083.5</ele></trkpt>
<trkpt lat="47.005700" lon="11.003800"><ele>1085.0</ele></trkpt>
<trkpt lat="47.005730" lon="11.003820"><ele>1086.5</ele></trkpt>
<trkpt lat="47.005760" lon="11.003840"><ele>1088.0</ele></trkpt>
<trkpt lat="47.005790" lon="11.003860"><ele>1089.5</ele></trkpt>
<trkpt lat="47.005820" lon="11.003880"><ele>1091.0</ele></trkpt>
<trkpt lat="47.005850" lon="11.003900"><ele>1092.5</ele></trkpt>
<trkpt lat="47.005880" lon="11.003920"><ele>1094.0</ele></trkpt>
<trkpt lat="47.005910" lon="11.003940"><ele>1095.5</ele></trkpt>
<trkpt lat="47.005940" lon="11.003960"><ele>1097.0</ele></trkpt>
<trkpt lat="47.005970" lon="11.003980"><ele>1098.5</ele></trkpt>
<trkpt lat="47.006000" lon="11.004000"><ele>1100.0</ele></trkpt>
<trkpt lat="47.006030" lon="11.004020"><ele>1098.5</ele></trkpt>
<trkpt lat="47.006060" lon="11.004040"><ele>1097.0</ele></trkpt>
<trkpt lat="47.006090" lon="11.004060"><ele>1095.5</ele></trkpt>
<trkpt lat="47.006120" lon="11.004080"><ele>1094.0</ele></trkpt>
<trkpt lat="47.006150" lon="11.004100"><ele>1092.5</ele></trkpt>
<trkpt lat="47.006180" lon="11.004120"><ele>1091.0</ele></trkpt>
<trkpt lat="47.006210" lon="11.004140"><ele>1089.5</ele></trkpt>
<trkpt lat="47.006240" lon="11.004160"><ele>1088.0</ele></trkpt>
<trkpt lat="47.006270" lon="11.004180"><ele>1086.5</ele></trkpt>
<trkpt lat="47.006300" lon="11.004200"><ele>1085.0</ele></trkpt>
<trkpt lat="47.006330" lon="11.004220"><ele>1083.5</ele></trkpt>
<trkpt lat="47.006360" lon="11.004240"><ele>1082.0</ele></trkpt>
<trkpt lat="47.006390" lon="11.004260"><ele>1080.5</ele></trkpt>
<trkpt lat="47.006420" lon="11.004280"><ele>1079.0</ele></trkpt>
<trkpt lat="47.006450" lon="11.004300"><ele>1077.5</ele></trkpt>
<trkpt lat="47.006480" lon="11.004320"><ele>1076.0</ele></trkpt>
<trkpt lat="47.006510" lon="11.004340"><ele>1074.5</ele></trkpt>
<trkpt lat="47.006540" lon="11.004360"><ele>1073.0</ele></trkpt>
<trkpt lat="47.006570" lon="11.004380"><ele>1071.5</ele></trkpt>
<trkpt lat="47.006600" lon="11.004400"><ele>1070.0</ele></trkpt>
<trkpt lat="47.006630" lon="11.004420"><ele>1068.5</ele></trkpt>
<trkpt lat="47.006660" lon="11.004440"><ele>1067.0</ele></trkpt>
<trkpt lat="47.006690" lon="11.004460"><ele>1065.5</ele></trkpt>
<trkpt lat="47.006720" lon="11.004480"><ele>1064.0</ele></trkpt>
<trkpt lat="47.006750" lon="11.004500"><ele>1062.5</ele></trkpt>
<trkpt lat="47.006780" lon="11.004520"><ele>1061.0</ele></trkpt>
<trkpt lat="47.006810" lon="11.004540"><ele>1059.5</ele></trkpt>
<trkpt lat="47.006840" lon="11.004560"><ele>1058.0</ele></trkpt>
<trkpt lat="47.006870" lon="11.004580"><ele>1056.5</ele></trkpt>
<trkpt lat="47.006900" lon="11.004600"><ele>1055.0</ele></trkpt>
<trkpt lat="47.006930" lon="11.004620"><ele>1053.5</ele></trkpt>
<trkpt lat="47.006960" lon="11.004640"><ele>1052.0</ele></trkpt>
<trkpt lat="47.006990" lon="11.004660"><ele>1050.5</ele></trkpt>
<trkpt lat="47.007020" lon="11.004680"><ele>1049.0</ele></trkpt>
<trkpt lat="47.007050" lon="11.004700"><ele>1047.5</ele></trkpt>
<trkpt lat="47.007080" lon="11.004720"><ele>1046.0</ele></trkpt>
<trkpt lat="47.007110" lon="11.004740"><ele>1044.5</ele></trkpt>
<trkpt lat="47.007140" lon="11.004760"><ele>1043.0</ele></trkpt>
<trkpt lat="47.007170" lon="11.004780"><ele>1041.5</ele></trkpt>
<trkpt lat="47.007200" lon="11.004800"><ele>1040.0</ele></trkpt>
<trkpt lat="47.007230" lon="11.004820"><ele>1038.5</ele></trkpt>
<trkpt lat="47.007260" lon="11.004840"><ele>1037.0</ele></trkpt>
<trkpt lat="47.007290" lon="11.004860"><ele>1035.5</ele></trkpt>
<trkpt lat="47.007320" lon="11.004880"><ele>1034.0</ele></trkpt>
<trkpt lat="47.007350" lon="11.004900"><ele>1032.5</ele></trkpt>
<trkpt lat="47.007380" lon="11.004920"><ele>1031.0</ele></trkpt>
<trkpt lat="47.007410" lon="11.004940"><ele>1029.5</ele></trkpt>
<trkpt lat="47.007440" lon="11.004960"><ele>1028.0</ele></trkpt>
<trkpt lat="47.007470" lon="11.004980"><ele>1026.5</ele></trkpt>
<trkpt lat="47.007500" lon="11.005000"><ele>1025.0</ele></trkpt>
<trkpt lat="47.007530" lon="11.005020"><ele>1023.5</ele></trkpt>
<trkpt lat="47.007560" lon="11.005040"><ele>1022.0</ele></trkpt>
<trkpt lat="47.007590" lon="11.005060"><ele>1020.5</ele></trkpt>
<trkpt lat="47.007620" lon="11.005080"><ele>1019.0</ele></trkpt>
<trkpt lat="47.007650" lon="11.005100"><ele>1017.5</ele></trkpt>
<trkpt lat="47.007680" lon="11.005120"><ele>1016.0</ele></trkpt>
<trkpt lat="47.007710" lon="11.005140"><ele>1014.5</ele></trkpt>
<trkpt lat="47.007740" lon="11.005160"><ele>1013.0</ele></trkpt>
<trkpt lat="47.007770" lon="11.005180"><ele>1011.5</ele></trkpt>
<trkpt lat="47.007800" lon="11.005200"><ele>1010.0</ele></trkpt>
<trkpt lat="47.007830" lon="11.005220"><ele>1008.5</ele></trkpt>
<trkpt lat="47.007860" lon="11.005240"><ele>1007.0</ele></trkpt>
<trkpt lat="47.007890" lon="11.005260"><ele>1005.5</ele></trkpt>
<trkpt lat="47.007920" lon="11.005280"><ele>1004.0</ele></trkpt>
<trkpt lat="47.007950" lon="11.005300"><ele>1002.5</ele></trkpt>
<trkpt lat="47.007980" lon="11.005320"><ele>1001.0</ele></trkpt>
<trkpt lat="47.008010" lon="11.005340"><ele>999.5</ele></trkpt>
<trkpt lat="47.008040" lon="11.005360"><ele>998.0</ele></trkpt>
<trkpt lat="47.008070" lon="11.005380"><ele>996.5</ele></trkpt>
<trkpt lat="47.008100" lon="11.005400"><ele>995.0</ele></trkpt>
<trkpt lat="47.008130" lon="11.005420"><ele>993.5</ele></trkpt>
<trkpt lat="47.008160" lon="11.005440"><ele>992.0</ele></trkpt>
<trkpt lat="47.008190" lon="11.005460"><ele>990.5</ele></trkpt>
<trkpt lat="47.008220" lon="11.005480"><ele>989.0</ele></trkpt>
<trkpt lat="47.008250" lon="11.005500"><ele>987.5</ele></trkpt>
<trkpt lat="47.008280" lon="11.005520"><ele>986.0</ele></trkpt>
<trkpt lat="47.008310" lon="11.005540"><ele>984.5</ele></trkpt>
<trkpt lat="47.008340" lon="11.005560"><ele>983.0</ele></trkpt>
<trkpt lat="47.008370" lon="11.005580"><ele>981.5</ele></trkpt>
<trkpt lat="47.008400" lon="11.005600"><ele>980.0</ele></trkpt>
<trkpt lat="47.008430" lon="11.005620"><ele>978.5</ele></trkpt>
<trkpt lat="47.008460" lon="11.005640"><ele>977.0</ele></trkpt>
<trkpt lat="47.008490" lon="11.005660"><ele>975.5</ele></trkpt>
<trkpt lat="47.008520" lon="11.005680"><ele>974.0</ele></trkpt>
<trkpt lat="47.008550" lon="11.005700"><ele>972.5</ele></trkpt>
<trkpt lat="47.008580" lon="11.005720"><ele>971.0</ele></trkpt>
<trkpt lat="47.008610" lon="11.005740"><ele>969.5</ele></trkpt>
<trkpt lat="47.008640" lon="11.005760"><ele>968.0</ele></trkpt>
<trkpt lat="47.008670" lon="11.005780"><ele>966.5</ele></trkpt>
<trkpt lat="47.008700" lon="11.005800"><ele>965.0</ele></trkpt>
<trkpt lat="47.008730" lon="11.005820"><ele>963.5</ele></trkpt>
<trkpt lat="47.008760" lon="11.005840"><ele>962.0</ele></trkpt>
<trkpt lat="47.008790" lon="11.005860"><ele>960.5</ele></trkpt>
<trkpt lat="47.008820" lon="11.005880"><ele>959.0</ele></trkpt>
<trkpt lat="47.008850" lon="11.005900"><ele>957.5</ele></trkpt>
<trkpt lat="47.008880" lon="11.005920"><ele>956.0</ele></trkpt>
<trkpt lat="47.008910" lon="11.005940"><ele>954.5</ele></trkpt>
<trkpt lat="47.008940" lon="11.005960"><ele>953.0</ele></trkpt>
<trkpt lat="47.008970" lon="11.005980"><ele>951.5</ele></trkpt>
<trkpt lat="47.009000" lon="11.006000"><ele>950.0</ele></trkpt>
<trkpt lat="47.009030" lon="11.006020"><ele>948.5</ele></trkpt>
<trkpt lat="47.009060" lon="11.006040"><ele>947.0</ele></trkpt>
<trkpt lat="47.009090" lon="11.006060"><ele>945.5</ele></trkpt>
<trkpt lat="47.009120" lon="11.006080"><ele>944.0</ele></trkpt>
<trkpt lat="47.009150" lon="11.006100"><ele>942.5</ele></trkpt>
<trkpt lat="47.009180" lon="11.006120"><ele>941.0</ele></trkpt>
<trkpt lat="47.009210" lon="11.006140"><ele>939.5</ele></trkpt>
<trkpt lat="47.009240" lon="11.006160"><ele>938.0</ele></trkpt>
<trkpt lat="47.009270" lon="11.006180"><ele>936.5</ele></trkpt>
<trkpt lat="47.009300" lon="11.006200"><ele>935.0</ele></trkpt>
<trkpt lat="47.009330" lon="11.006220"><ele>933.5</ele></trkpt>
<trkpt lat="47.009360" lon="11.006240"><ele>932.0</ele></trkpt>
<trkpt lat="47.009390" lon="11.006260"><ele>930.5</ele></trkpt>
<trkpt lat="47.009420" lon="11.006280"><ele>929.0</ele></trkpt>
<trkpt lat="47.009450" lon="11.006300"><ele>927.5</ele></trkpt>
<trkpt lat="47.009480" lon="11.006320"><ele>926.0</ele></trkpt>
<trkpt lat="47.009510" lon="11.006340"><ele>924.5</ele></trkpt>
<trkpt lat="47.009540" lon="11.006360"><ele>923.0</ele></trkpt>
<trkpt lat="47.009570" lon="11.006380"><ele>921.5</ele></trkpt>
<trkpt lat="47.009600" lon="11.006400"><ele>920.0</ele></trkpt>
<trkpt lat="47.009630" lon="11.006420"><ele>918.5</ele></trkpt>
<trkpt lat="47.009660" lon="11.006440"><ele>917.0</ele></trkpt>
<trkpt lat="47.009690" lon="11.006460"><ele>915.5</ele></trkpt>
<trkpt lat="47.009720" lon="11.006480"><ele>914.0</ele></trkpt>
<trkpt lat="47.009750" lon="11.006500"><ele>912.5</ele></trkpt>
<trkpt lat="47.009780" lon="11.006520"><ele>911.0</ele></trkpt>
<trkpt lat="47.009810" lon="11.006540"><ele>909.5</ele></trkpt>
<trkpt lat="47.009840" lon="11.006560"><ele>908.0</ele></trkpt>
<trkpt lat="47.009870" lon="11.006580"><ele>906.5</ele></trkpt>
<trkpt lat="47.009900" lon="11.006600"><ele>905.0</ele></trkpt>
<trkpt lat="47.009930" lon="11.006620"><ele>903.5</ele></trkpt>
<trkpt lat="47.009960" lon="11.006640"><ele>902.0</ele></trkpt>
<trkpt lat="47.009990" lon="11.006660"><ele>900.5</ele></trkpt>
<trkpt lat="47.010020" lon="11.006680"><ele>899.0</ele></trkpt>
<trkpt lat="47.010050" lon="11.006700"><ele>897.5</ele></trkpt>
<trkpt lat="47.010080" lon="11.006720"><ele>896.0</ele></trkpt>
<trkpt lat="47.010110" lon="11.006740"><ele>894.5</ele></trkpt>
<trkpt lat="47.010140" lon="11.006760"><ele>893.0</ele></trkpt>
<trkpt lat="47.010170" lon="11.006780"><ele>891.5</ele></trkpt>
<trkpt lat="47.010200" lon="11.006800"><ele>890.0</ele></trkpt>
<trkpt lat="47.010230" lon="11.006820"><ele>888.5</ele></trkpt>
<trkpt lat="47.010260" lon="11.006840"><ele>887.0</ele></trkpt>
<trkpt lat="47.010290" lon="11.006860"><ele>885.5</ele></trkpt>
<trkpt lat="47.010320" lon="11.006880"><ele>884.0</ele></trkpt>
<trkpt lat="47.010350" lon="11.006900"><ele>882.5</ele></trkpt>
<trkpt lat="47.010380" lon="11.006920"><ele>881.0</ele></trkpt>
<trkpt lat="47.010410" lon="11.006940"><ele>879.5</ele></trkpt>
<trkpt lat="47.010440" lon="11.006960"><ele>878.0</ele></trkpt>
<trkpt lat="47.010470" lon="11.006980"><ele>876.5</ele></trkpt>
<trkpt lat="47.010500" lon="11.007000"><ele>875.0</ele></trkpt>
<trkpt lat="47.010530" lon="11.007020"><ele>873.5</ele></trkpt>
<trkpt lat="47.010560" lon="11.007040"><ele>872.0</ele></trkpt>
<trkpt lat="47.010590" lon="11.007060"><ele>870.5</ele></trkpt>
<trkpt lat="47.010620" lon="11.007080"><ele>869.0</ele></trkpt>
<trkpt lat="47.010650" lon="11.007100"><ele>867.5</ele></trkpt>
<trkpt lat="47.010680" lon="11.007120"><ele>866.0</ele></trkpt>
<trkpt lat="47.010710" lon="11.007140"><ele>864.5</ele></trkpt>
<trkpt lat="47.010740" lon="11.007160"><ele>863.0</ele></trkpt>
<trkpt lat="47.010770" lon="11.007180"><ele>861.5</ele></trkpt>
<trkpt lat="47.010800" lon="11.007200"><ele>860.0</ele></trkpt>
<trkpt lat="47.010830" lon="11.007220"><ele>858.5</ele></trkpt>
<trkpt lat="47.010860" lon="11.007240"><ele>857.0</ele></trkpt>
<trkpt lat="47.010890" lon="11.007260"><ele>855.5</ele></trkpt>
<trkpt lat="47.010920" lon="11.007280"><ele>854.0</ele></trkpt>
<trkpt lat="47.010950" lon="11.007300"><ele>852.5</ele></trkpt>
<trkpt lat="47.010980" lon="11.007320"><ele>851.0</ele></trkpt>
<trkpt lat="47.011010" lon="11.007340"><ele>849.5</ele></trkpt>
<trkpt lat="47.011040" lon="11.007360"><ele>848.0</ele></trkpt>
<trkpt lat="47.011070" lon="11.007380"><ele>846.5</ele></trkpt>
<trkpt lat="47.011100" lon="11.007400"><ele>845.0</ele></trkpt>
<trkpt lat="47.011130" lon="11.007420"><ele>843.5</ele></trkpt>
<trkpt lat="47.011160" lon="11.007440"><ele>842.0</ele></trkpt>
<trkpt lat="47.011190" lon="11.007460"><ele>840.5</ele></trkpt>
<trkpt lat="47.011220" lon="11.007480"><ele>839.0</ele></trkpt>
<trkpt lat="47.011250" lon="11.007500"><ele>837.5</ele></trkpt>
<trkpt lat="47.011280" lon="11.007520"><ele>836.0</ele></trkpt>
<trkpt lat="47.011310" lon="11.007540"><ele>834.5</ele></trkpt>
<trkpt lat="47.011340" lon="11.007560"><ele>833.0</ele></trkpt>
<trkpt lat="47.011370" lon="11.007580"><ele>831.5</ele></trkpt>
<trkpt lat="47.011400" lon="11.007600"><ele>830.0</ele></trkpt>
<trkpt lat="47.011430" lon="11.007620"><ele>828.5</ele></trkpt>
<trkpt lat="47.011460" lon="11.007640"><ele>827.0</ele></trkpt>
<trkpt lat="47.011490" lon="11.007660"><ele>825.5</ele></trkpt>
<trkpt lat="47.011520" lon="11.007680"><ele>824.0</ele></trkpt>
<trkpt lat="47.011550" lon="11.007700"><ele>822.5</ele></trkpt>
<trkpt lat="47.011580" lon="11.007720"><ele>821.0</ele></trkpt>
<trkpt lat="47.011610" lon="11.007740"><ele>819.5</ele></trkpt>
<trkpt lat="47.011640" lon="11.007760"><ele>818.0</ele></trkpt>
<trkpt lat="47.011670" lon="11.007780"><ele>816.5</ele></trkpt>
<trkpt lat="47.011700" lon="11.007800"><ele>815.0</ele></trkpt>
<trkpt lat="47.011730" lon="11.007820"><ele>813.5</ele></trkpt>
<trkpt lat="47.011760" lon="11.007840"><ele>812.0</ele></trkpt>
<trkpt lat="47.011790" lon="11.007860"><ele>810.5</ele></trkpt>
<trkpt lat="47.011820" lon="11.007880"><ele>809.0</ele></trkpt>
<trkpt lat="47.011850" lon="11.007900"><ele>807.5</ele></trkpt>
<trkpt lat="47.011880" lon="11.007920"><ele>806.0</ele></trkpt>
<trkpt lat="47.011910" lon="11.007940"><ele>804.5</ele></trkpt>
<trkpt lat="47.011940" lon="11.007960"><ele>803.0</ele></trkpt>
<trkpt lat="47.011970" lon="11.007980"><ele>801.5</ele></trkpt>
</trkseg></trk></gpx>
