<?xml version="1.0"?>
<gpx xmlns="http://www.topografix.com/GPX/1/1" version="1.1">
<metadata><author><name>Some Author</name></author><name>Metadata Title</name></metadata>
<trk><name>Real Track Name</name><trkseg>
<trkpt lat="46.500000" lon="10.500000"><ele>800.0</ele></trkpt>
<trkpt lat="46.500100" lon="10.500130"><ele>808.4</ele></trkpt>
<trkpt lat="46.500200" lon="10.500260"><ele>816.7</ele></trkpt>
<trkpt lat="46.500300" lon="10.500390"><ele>825.1</ele></trkpt>
<trkpt lat="46.500400" lon="10.500520"><ele>833.4</ele></trkpt>
<trkpt lat="46.500500" lon="10.500650"><ele>841.6</ele></trkpt>
<trkpt lat="46.500600" lon="10.500780"><ele>849.7</ele></trkpt>
<trkpt lat="46.500700" lon="10.500910"><ele>857.8</ele></trkpt>
<trkpt lat="46.500800" lon="10.501040"><ele>865.8</ele></trkpt>
<trkpt lat="46.500900" lon="10.501170"><ele>873.6</ele></trkpt>
<trkpt lat="46.501000" lon="10.501300"><ele>881.3</ele></trkpt>
<trkpt lat="46.501100" lon="10.501430"><ele>888.9</ele></trkpt>
<trkpt lat="46.501200" lon="10.501560"><ele>896.4</ele></trkpt>
<trkpt lat="46.501300" lon="10.501690"><ele>903.6</ele></trkpt>
<trkpt lat="46.501400" lon="10.501820"><ele>910.7</ele></trkpt>
<trkpt lat="46.501500" lon="10.501950"><ele>917.6</ele></trkpt>
<trkpt lat="46.501600" lon="10.502080"><ele>924.2</ele></trkpt>
<trkpt lat="46.501700" lon="10.502210"><ele>930.7</ele></trkpt>
<trkpt lat="46.501800" lon="10.502340"><ele>936.9</ele></trkpt>
<trkpt lat="46.501900" lon="10.502470"><ele>942.9</ele></trkpt>
<trkpt lat="46.502000" lon="10.502600"><ele>948.6</ele></trkpt>
<trkpt lat="46.502100" lon="10.502730"><ele>954.1</ele></trkpt>
<trkpt lat="46.502200" lon="10.502860"><ele>959.3</ele></trkpt>
<trkpt lat="46.502300" lon="10.502990"><ele>964.2</ele></trkpt>
<trkpt lat="46.502400" lon="10.503120"><ele>968.9</ele></trkpt>
<trkpt lat="46.502500" lon="10.503250"><ele>973.2</ele></trkpt>
<trkpt lat="46.502600" lon="10.503380"><ele>977.2</ele></trkpt>
<trkpt lat="46.502700" lon="10.503510"><ele>981.0</ele></trkpt>
<trkpt lat="46.502800" lon="10.503640"><ele>984.4</ele></trkpt>
<trkpt lat="46.502900" lon="10.503770"><ele>987.5</ele></trkpt>
<trkpt lat="46.503000" lon="10.503900"><ele>990.2</ele></trkpt>
<trkpt lat="46.503100" lon="10.504030"><ele>992.6</ele></trkpt>
<trkpt lat="46.503200" lon="10.504160"><ele>994.7</ele></trkpt>
<trkpt lat="46.503300" lon="10.504290"><ele>996.5</ele></trkpt>
<trkpt lat="46.503400" lon="10.504420"><ele>997.9</ele></trkpt>
<trkpt lat="46.503500" lon="10.504550"><ele>998.9</ele></trkpt>
<trkpt lat="46.503600" lon="10.504680"><ele>999.6</ele></trkpt>
<trkpt lat="46.503700" lon="10.504810"><ele>1000.0</ele></trkpt>
<trkpt lat="46.503800" lon="10.504940"><ele>1000.0</ele></trkpt>
<trkpt lat="46.503900" lon="10.505070"><ele>999.6</ele></trkpt>
<trkpt lat="46.504000" lon="10.505200"><ele>998.9</ele></trkpt>
<trkpt lat="46.504100" lon="10.505330"><ele>997.9</ele></trkpt>
<trkpt lat="46.504200" lon="10.505460"><ele>996.5</ele></trkpt>
<trkpt lat="46.504300" lon="10.505590"><ele>994.7</ele></trkpt>
<trkpt lat="46.504400" lon="10.505720"><ele>992.6</ele></trkpt>
<trkpt lat="46.504500" lon="10.505850"><ele>990.2</ele></trkpt>
<trkpt lat="46.504600" lon="10.505980"><ele>987.5</ele></trkpt>
<trkpt lat="46.504700" lon="10.506110"><ele>984.4</ele></trkpt>
<trkpt lat="46.504800" lon="10.506240"><ele>981.0</ele></trkpt>
<trkpt lat="46.504900" lon="10.506370"><ele>977.2</ele></trkpt>
<trkpt lat="46.505000" lon="10.506500"><ele>973.2</ele></trkpt>
<trkpt lat="46.505100" lon="10.506630"><ele>968.9</ele></trkpt>
<trkpt lat="46.505200" lon="10.506760"><ele>964.2</ele></trkpt>
<trkpt lat="46.505300" lon="10.506890"><ele>959.3</ele></trkpt>
<trkpt lat="46.505400" lon="10.507020"><ele>954.1</ele></trkpt>
<trkpt lat="46.505500" lon="10.507150"><ele>948.6</ele></trkpt>
<trkpt lat="46.505600" lon="10.507280"><ele>942.9</ele></trkpt>
<trkpt lat="46.505700" lon="10.507410"><ele>936.9</ele></trkpt>
<trkpt lat="46.505800" lon="10.507540"><ele>930.7</ele></trkpt>
<trkpt lat="46.505900" lon="10.507670"><ele>924.2</ele></trkpt>
<trkpt lat="46.506000" lon="10.507800"><ele>917.6</ele></trkpt>
<trkpt lat="46.506100" lon="10.507930"><ele>910.7</ele></trkpt>
<trkpt lat="46.506200" lon="10.508060"><ele>903.6</ele></trkpt>
<trkpt lat="46.506300" lon="10.508190"><ele>896.4</ele></trkpt>
<trkpt lat="46.506400" lon="10.508320"><ele>888.9</ele></trkpt>
<trkpt lat="46.506500" lon="10.508450"><ele>881.3</ele></trkpt>
<trkpt lat="46.506600" lon="10.508580"><ele>873.6</ele></trkpt>
<trkpt lat="46.506700" lon="10.508710"><ele>865.8</ele></trkpt>
<trkpt lat="46.506800" lon="10.508840"><ele>857.8</ele></trkpt>
<trkpt lat="46.506900" lon="10.508970"><ele>849.7</ele></trkpt>
<trkpt lat="46.507000" lon="10.509100"><ele>841.6</ele></trkpt>
<trkpt lat="46.507100" lon="10.509230"><ele>833.4</ele></trkpt>
<trkpt lat="46.507200" lon="10.509360"><ele>825.1</ele></trkpt>
<trkpt lat="46.507300" lon="10.509490"><ele>816.7</ele></trkpt>
<trkpt lat="46.507400" lon="10.509620"><ele>808.4</ele></trkpt>
<trkpt lat="46.507500" lon="10.509750"><ele>800.0</ele></trkpt>
<trkpt lat="46.507600" lon="10.509880"><ele>791.6</ele></trkpt>
<trkpt lat="46.507700" lon="10.510010"><ele>783.3</ele></trkpt>
<trkpt lat="46.507800" lon="10.510140"><ele>774.9</ele></trkpt>
<trkpt lat="46.507900" lon="10.510270"><ele>766.6</ele></trkpt>
<trkpt lat="46.508000" lon="10.510400"><ele>758.4</ele></trkpt>
<trkpt lat="46.508100" lon="10.510530"><ele>750.3</ele></trkpt>
<trkpt lat="46.508200" lon="10.510660"><ele>742.2</ele></trkpt>
<trkpt lat="46.508300" lon="10.510790"><ele>734.2</ele></trkpt>
<trkpt lat="46.508400" lon="10.510920"><ele>726.4</ele></trkpt>
<trkpt lat="46.508500" lon="10.511050"><ele>718.7</ele></trkpt>
<trkpt lat="46.508600" lon="10.511180"><ele>711.1</ele></trkpt>
<trkpt lat="46.508700" lon="10.511310"><ele>703.6</ele></trkpt>
<trkpt lat="46.508800" lon="10.511440"><ele>696.4</ele></trkpt>
<trkpt lat="46.508900" lon="10.511570"><ele>689.3</ele></trkpt>
<trkpt lat="46.509000" lon="10.511700"><ele>682.4</ele></trkpt>
<trkpt lat="46.509100" lon="10.511830"><ele>675.8</ele></trkpt>
<trkpt lat="46.509200" lon="10.511960"><ele>669.3</ele></trkpt>
<trkpt lat="46.509300" lon="10.512090"><ele>663.1</ele></trkpt>
<trkpt lat="46.509400" lon="10.512220"><ele>657.1</ele></trkpt>
<trkpt lat="46.509500" lon="10.512350"><ele>651.4</ele></trkpt>
<trkpt lat="46.509600" lon="10.512480"><ele>645.9</ele></trkpt>
<trkpt lat="46.509700" lon="10.512610"><ele>640.7</ele></trkpt>
<trkpt lat="46.509800" lon="10.512740"><ele>635.8</ele></trkpt>
<trkpt lat="46.509900" lon="10.512870"><ele>631.1</ele></trkpt>
<trkpt lat="46.510000" lon="10.513000"><ele>626.8</ele></trkpt>
<trkpt lat="46.510100" lon="10.513130"><ele>622.8</ele></trkpt>
<trkpt lat="46.510200" lon="10.513260"><ele>619.0</ele></trkpt>
<trkpt lat="46.510300" lon="10.513390"><ele>615.6</ele></trkpt>
<trkpt lat="46.510400" lon="10.513520"><ele>612.5</ele></trkpt>
<trkpt lat="46.510500" lon="10.513650"><ele>609.8</ele></trkpt>
<trkpt lat="46.510600" lon="10.513780"><ele>607.4</ele></trkpt>
<trkpt lat="46.510700" lon="10.513910"><ele>605.3</ele></trkpt>
<trkpt lat="46.510800" lon="10.514040"><ele>603.5</ele></trkpt>
<trkpt lat="46.510900" lon="10.514170"><ele>602.1</ele></trkpt>
<trkpt lat="46.511000" lon="10.514300"><ele>601.1</ele></trkpt>
<trkpt lat="46.511100" lon="10.514430"><ele>600.4</ele></trkpt>
<trkpt lat="46.511200" lon="10.514560"><ele>600.0</ele></trkpt>
<trkpt lat="46.511300" lon="10.514690"><ele>600.0</ele></trkpt>
<trkpt lat="46.511400" lon="10.514820"><ele>600.4</ele></trkpt>
<trkpt lat="46.511500" lon="10.514950"><ele>601.1</ele></trkpt>
<trkpt lat="46.511600" lon="10.515080"><ele>602.1</ele></trkpt>
<trkpt lat="46.511700" lon="10.515210"><ele>603.5</ele></trkpt>
<trkpt lat="46.511800" lon="10.515340"><ele>605.3</ele></trkpt>
<trkpt lat="46.511900" lon="10.515470"><ele>607.4</ele></trkpt>
<trkpt lat="46.512000" lon="10.515600"><ele>609.8</ele></trkpt>
<trkpt lat="46.512100" lon="10.515730"><ele>612.5</ele></trkpt>
<trkpt lat="46.512200" lon="10.515860"><ele>615.6</ele></trkpt>
<trkpt lat="46.512300" lon="10.515990"><ele>619.0</ele></trkpt>
<trkpt lat="46.512400" lon="10.516120"><ele>622.8</ele></trkpt>
<trkpt lat="46.512500" lon="10.516250"><ele>626.8</ele></trkpt>
<trkpt lat="46.512600" lon="10.516380"><ele>631.1</ele></trkpt>
<trkpt lat="46.512700" lon="10.516510"><ele>635.8</ele></trkpt>
<trkpt lat="46.512800" lon="10.516640"><ele>640.7</ele></trkpt>
<trkpt lat="46.512900" lon="10.516770"><ele>645.9</ele></trkpt>
<trkpt lat="46.513000" lon="10.516900"><ele>651.4</ele></trkpt>
<trkpt lat="46.513100" lon="10.517030"><ele>657.1</ele></trkpt>
<trkpt lat="46.513200" lon="10.517160"><ele>663.1</ele></trkpt>
<trkpt lat="46.513300" lon="10.517290"><ele>669.3</ele></trkpt>
<trkpt lat="46.513400" lon="10.517420"><ele>675.8</ele></trkpt>
<trkpt lat="46.513500" lon="10.517550"><ele>682.4</ele></trkpt>
<trkpt lat="46.513600" lon="10.517680"><ele>689.3</ele></trkpt>
<trkpt lat="46.513700" lon="10.517810"><ele>696.4</ele></trkpt>
<trkpt lat="46.513800" lon="10.517940"><ele>703.6</ele></trkpt>
<trkpt lat="46.513900" lon="10.518070"><ele>711.1</ele></trkpt>
<trkpt lat="46.514000" lon="10.518200"><ele>718.7</ele></trkpt>
<trkpt lat="46.514100" lon="10.518330"><ele>726.4</ele></trkpt>
<trkpt lat="46.514200" lon="10.518460"><ele>734.2</ele></trkpt>
<trkpt lat="46.514300" lon="10.518590"><ele>742.2</ele></trkpt>
<trkpt lat="46.514400" lon="10.518720"><ele>750.3</ele></trkpt>
<trkpt lat="46.514500" lon="10.518850"><ele>758.4</ele></trkpt>
<trkpt lat="46.514600" lon="10.518980"><ele>766.6</ele></trkpt>
<trkpt lat="46.514700" lon="10.519110"><ele>774.9</ele></trkpt>
<trkpt lat="46.514800" lon="10.519240"><ele>783.3</ele></trkpt>
<trkpt lat="46.514900" lon="10.519370"><ele>791.6</ele></trkpt>
<trkpt lat="46.515000" lon="10.519500"><ele>800.0</ele></trkpt>
<trkpt lat="46.515100" lon="10.519630"><ele>808.4</ele></trkpt>
<trkpt lat="46.515200" lon="10.519760"><ele>816.7</ele></trkpt>
<trkpt lat="46.515300" lon="10.519890"><ele>825.1</ele></trkpt>
<trkpt lat="46.515400" lon="10.520020"><ele>833.4</ele></trkpt>
<trkpt lat="46.515500" lon="10.520150"><ele>841.6</ele></trkpt>
<trkpt lat="46.515600" lon="10.520280"><ele>849.7</ele></trkpt>
<trkpt lat="46.515700" lon="10.520410"><ele>857.8</ele></trkpt>
<trkpt lat="46.515800" lon="10.520540"><ele>865.8</ele></trkpt>
<trkpt lat="46.515900" lon="10.520670"><ele>873.6</ele></trkpt>
<trkpt lat="46.516000" lon="10.520800"><ele>881.3</ele></trkpt>
<trkpt lat="46.516100" lon="10.520930"><ele>888.9</ele></trkpt>
<trkpt lat="46.516200" lon="10.521060"><ele>896.4</ele></trkpt>
<trkpt lat="46.516300" lon="10.521190"><ele>903.6</ele></trkpt>
<trkpt lat="46.516400" lon="10.521320"><ele>910.7</ele></trkpt>
<trkpt lat="46.516500" lon="10.521450"><ele>917.6</ele></trkpt>
<trkpt lat="46.516600" lon="10.521580"><ele>924.2</ele></trkpt>
<trkpt lat="46.516700" lon="10.521710"><ele>930.7</ele></trkpt>
<trkpt lat="46.516800" lon="10.521840"><ele>936.9</ele></trkpt>
<trkpt lat="46.516900" lon="10.521970"><ele>942.9</ele></trkpt>
<trkpt lat="46.517000" lon="10.522100"><ele>948.6</ele></trkpt>
<trkpt lat="46.517100" lon="10.522230"><ele>954.1</ele></trkpt>
<trkpt lat="46.517200" lon="10.522360"><ele>959.3</ele></trkpt>
<trkpt lat="46.517300" lon="10.522490"><ele>964.2</ele></trkpt>
<trkpt lat="46.517400" lon="10.522620"><ele>968.9</ele></trkpt>
<trkpt lat="46.517500" lon="10.522750"><ele>973.2</ele></trkpt>
<trkpt lat="46.517600" lon="10.522880"><ele>977.2</ele></trkpt>
<trkpt lat="46.517700" lon="10.523010"><ele>981.0</ele></trkpt>
<trkpt lat="46.517800" lon="10.523140"><ele>984.4</ele></trkpt>
<trkpt lat="46.517900" lon="10.523270"><ele>987.5</ele></trkpt>
<trkpt lat="46.518000" lon="10.523400"><ele>990.2</ele></trkpt>
<trkpt lat="46.518100" lon="10.523530"><ele>992.6</ele></trkpt>
<trkpt lat="46.518200" lon="10.523660"><ele>994.7</ele></trkpt>
<trkpt lat="46.518300" lon="10.523790"><ele>996.5</ele></trkpt>
<trkpt lat="46.518400" lon="10.523920"><ele>997.9</ele></trkpt>
<trkpt lat="46.518500" lon="10.524050"><ele>998.9</ele></trkpt>
<trkpt lat="46.518600" lon="10.524180"><ele>999.6</ele></trkpt>
<trkpt lat="46.518700" lon="10.524310"><ele>1000.0</ele></trkpt>
<trkpt lat="46.518800" lon="10.524440"><ele>1000.0</ele></trkpt>
<trkpt lat="46.518900" lon="10.524570"><ele>999.6</ele></trkpt>
<trkpt lat="46.519000" lon="10.524700"><ele>998.9</ele></trkpt>
<trkpt lat="46.519100" lon="10.524830"><ele>997.9</ele></trkpt>
<trkpt lat="46.519200" lon="10.524960"><ele>996.5</ele></trkpt>
<trkpt lat="46.519300" lon="10.525090"><ele>994.7</ele></trkpt>
<trkpt lat="46.519400" lon="10.525220"><ele>992.6</ele></trkpt>
<trkpt lat="46.519500" lon="10.525350"><ele>990.2</ele></trkpt>
<trkpt lat="46.519600" lon="10.525480"><ele>987.5</ele></trkpt>
<trkpt lat="46.519700" lon="10.525610"><ele>984.4</ele></trkpt>
<trkpt lat="46.519800" lon="10.525740"><ele>981.0</ele></trkpt>
<trkpt lat="46.519900" lon="10.525870"><ele>977.2</ele></trkpt>
<trkpt lat="46.520000" lon="10.526000"><ele>973.2</ele></trkpt>
<trkpt lat="46.520100" lon="10.526130"><ele>968.9</ele></trkpt>
<trkpt lat="46.520200" lon="10.526260"><ele>964.2</ele></trkpt>
<trkpt lat="46.520300" lon="10.526390"><ele>959.3</ele></trkpt>
<trkpt lat="46.520400" lon="10.526520"><ele>954.1</ele></trkpt>
<trkpt lat="46.520500" lon="10.526650"><ele>948.6</ele></trkpt>
<trkpt lat="46.520600" lon="10.526780"><ele>942.9</ele></trkpt>
<trkpt lat="46.520700" lon="10.526910"><ele>936.9</ele></trkpt>
<trkpt lat="46.520800" lon="10.527040"><ele>930.7</ele></trkpt>
<trkpt lat="46.520900" lon="10.527170"><ele>924.2</ele></trkpt>
<trkpt lat="46.521000" lon="10.527300"><ele>917.6</ele></trkpt>
<trkpt lat="46.521100" lon="10.527430"><ele>910.7</ele></trkpt>
<trkpt lat="46.521200" lon="10.527560"><ele>903.6</ele></trkpt>
<trkpt lat="46.521300" lon="10.527690"><ele>896.4</ele></trkpt>
<trkpt lat="46.521400" lon="10.527820"><ele>888.9</ele></trkpt>
<trkpt lat="46.521500" lon="10.527950"><ele>881.3</ele></trkpt>
<trkpt lat="46.521600" lon="10.528080"><ele>873.6</ele></trkpt>
<trkpt lat="46.521700" lon="10.528210"><ele>865.8</ele></trkpt>
<trkpt lat="46.521800" lon="10.528340"><ele>857.8</ele></trkpt>
<trkpt lat="46.521900" lon="10.528470"><ele>849.7</ele></trkpt>
<trkpt lat="46.522000" lon="10.528600"><ele>841.6</ele></trkpt>
<trkpt lat="46.522100" lon="10.528730"><ele>833.4</ele></trkpt>
<trkpt lat="46.522200" lon="10.528860"><ele>825.1</ele></trkpt>
<trkpt lat="46.522300" lon="10.528990"><ele>816.7</ele></trkpt>
<trkpt lat="46.522400" lon="10.529120"><ele>808.4</ele></trkpt>
<trkpt lat="46.522500" lon="10.529250"><ele>800.0</ele></trkpt>
<trkpt lat="46.522600" lon="10.529380"><ele>791.6</ele></trkpt>
<trkpt lat="46.522700" lon="10.529510"><ele>783.3</ele></trkpt>
<trkpt lat="46.522800" lon="10.529640"><ele>774.9</ele></trkpt>
<trkpt lat="46.522900" lon="10.529770"><ele>766.6</ele></trkpt>
<trkpt lat="46.523000" lon="10.529900"><ele>758.4</ele></trkpt>
<trkpt lat="46.523100" lon="10.530030"><ele>750.3</ele></trkpt>
<trkpt lat="46.523200" lon="10.530160"><ele>742.2</ele></trkpt>
<trkpt lat="46.523300" lon="10.530290"><ele>734.2</ele></trkpt>
<trkpt lat="46.523400" lon="10.530420"><ele>726.4</ele></trkpt>
<trkpt lat="46.523500" lon="10.530550"><ele>718.7</ele></trkpt>
<trkpt lat="46.523600" lon="10.530680"><ele>711.1</ele></trkpt>
<trkpt lat="46.523700" lon="10.530810"><ele>703.6</ele></trkpt>
<trkpt lat="46.523800" lon="10.530940"><ele>696.4</ele></trkpt>
<trkpt lat="46.523900" lon="10.531070"><ele>689.3</ele></trkpt>
<trkpt lat="46.524000" lon="10.531200"><ele>682.4</ele></trkpt>
<trkpt lat="46.524100" lon="10.531330"><ele>675.8</ele></trkpt>
<trkpt lat="46.524200" lon="10.531460"><ele>669.3</ele></trkpt>
<trkpt lat="46.524300" lon="10.531590"><ele>663.1</ele></trkpt>
<trkpt lat="46.524400" lon="10.531720"><ele>657.1</ele></trkpt>
<trkpt lat="46.524500" lon="10.531850"><ele>651.4</ele></trkpt>
<trkpt lat="46.524600" lon="10.531980"><ele>645.9</ele></trkpt>
<trkpt lat="46.524700" lon="10.532110"><ele>640.7</ele></trkpt>
<trkpt lat="46.524800" lon="10.532240"><ele>635.8</ele></trkpt>
<trkpt lat="46.524900" lon="10.532370"><ele>631.1</ele></trkpt>
<trkpt lat="46.525000" lon="10.532500"><ele>626.8</ele></trkpt>
<trkpt lat="46.525100" lon="10.532630"><ele>622.8</ele></trkpt>
<trkpt lat="46.525200" lon="10.532760"><ele>619.0</ele></trkpt>
<trkpt lat="46.525300" lon="10.532890"><ele>615.6</ele></trkpt>
<trkpt lat="46.525400" lon="10.533020"><ele>612.5</ele></trkpt>
<trkpt lat="46.525500" lon="10.533150"><ele>609.8</ele></trkpt>
<trkpt lat="46.525600" lon="10.533280"><ele>607.4</ele></trkpt>
<trkpt lat="46.525700" lon="10.533410"><ele>605.3</ele></trkpt>
<trkpt lat="46.525800" lon="10.533540"><ele>603.5</ele></trkpt>
<trkpt lat="46.525900" lon="10.533670"><ele>602.1</ele></trkpt>
<trkpt lat="46.526000" lon="10.533800"><ele>601.1</ele></trkpt>
<trkpt lat="46.526100" lon="10.533930"><ele>600.4</ele></trkpt>
<trkpt lat="46.526200" lon="10.534060"><ele>600.0</ele></trkpt>
<trkpt lat="46.526300" lon="10.534190"><ele>600.0</ele></trkpt>
<trkpt lat="46.526400" lon="10.534320"><ele>600.4</ele></trkpt>
<trkpt lat="46.526500" lon="10.534450"><ele>601.1</ele></trkpt>
<trkpt lat="46.526600" lon="10.534580"><ele>602.1</ele></trkpt>
<trkpt lat="46.526700" lon="10.534710"><ele>603.5</ele></trkpt>
<trkpt lat="46.526800" lon="10.534840"><ele>605.3</ele></trkpt>
<trkpt lat="46.526900" lon="10.534970"><ele>607.4</ele></trkpt>
<trkpt lat="46.527000" lon="10.535100"><ele>609.8</ele></trkpt>
<trkpt lat="46.527100" lon="10.535230"><ele>612.5</ele></trkpt>
<trkpt lat="46.527200" lon="10.535360"><ele>615.6</ele></trkpt>
<trkpt lat="46.527300" lon="10.535490"><ele>619.0</ele></trkpt>
<trkpt lat="46.527400" lon="10.535620"><ele>622.8</ele></trkpt>
<trkpt lat="46.527500" lon="10.535750"><ele>626.8</ele></trkpt>
<trkpt lat="46.527600" lon="10.535880"><ele>631.1</ele></trkpt>
<trkpt lat="46.527700" lon="10.536010"><ele>635.8</ele></trkpt>
<trkpt lat="46.527800" lon="10.536140"><ele>640.7</ele></trkpt>
<trkpt lat="46.527900" lon="10.536270"><ele>645.9</ele></trkpt>
<trkpt lat="46.528000" lon="10.536400"><ele>651.4</ele></trkpt>
<trkpt lat="46.528100" lon="10.536530"><ele>657.1</ele></trkpt>
<trkpt lat="46.528200" lon="10.536660"><ele>663.1</ele></trkpt>
<trkpt lat="46.528300" lon="10.536790"><ele>669.3</ele></trkpt>
<trkpt lat="46.528400" lon="10.536920"><ele>675.8</ele></trkpt>
<trkpt lat="46.528500" lon="10.537050"><ele>682.4</ele></trkpt>
<trkpt lat="46.528600" lon="10.537180"><ele>689.3</ele></trkpt>
<trkpt lat="46.528700" lon="10.537310"><ele>696.4</ele></trkpt>
<trkpt lat="46.528800" lon="10.537440"><ele>703.6</ele></trkpt>
<trkpt lat="46.528900" lon="10.537570"><ele>711.1</ele></trkpt>
<trkpt lat="46.529000" lon="10.537700"><ele>718.7</ele></trkpt>
<trkpt lat="46.529100" lon="10.537830"><ele>726.4</ele></trkpt>
<trkpt lat="46.529200" lon="10.537960"><ele>734.2</ele></trkpt>
<trkpt lat="46.529300" lon="10.538090"><ele>742.2</ele></trkpt>
<trkpt lat="46.529400" lon="10.538220"><ele>750.3</ele></trkpt>
<trkpt lat="46.529500" lon="10.538350"><ele>758.4</ele></trkpt>
<trkpt lat="46.529600" lon="10.538480"><ele>766.6</ele></trkpt>
<trkpt lat="46.529700" lon="10.538610"><ele>774.9</ele></trkpt>
<trkpt lat="46.529800" lon="10.538740"><ele>783.3</ele></trkpt>
<trkpt lat="46.529900" lon="10.538870"><ele>791.6</ele></trkpt>
</trkseg></trk></gpx>