<?xml version="1.0"?>
<gpx xmlns="http://www.topografix.com/GPX/1/1" version="1.1">
<trk><name>No Ele</name><trkseg>
<trkpt lat="46.500000" lon="10.500000"></trkpt>
<trkpt lat="46.500100" lon="10.500130"></trkpt>
<trkpt lat="46.500200" lon="10.500260"></trkpt>
<trkpt lat="46.500300" lon="10.500390"></trkpt>
<trkpt lat="46.500400" lon="10.500520"></trkpt>
<trkpt lat="46.500500" lon="10.500650"></trkpt>
<trkpt lat="46.500600" lon="10.500780"></trkpt>
<trkpt lat="46.500700" lon="10.500910"></trkpt>
<trkpt lat="46.500800" lon="10.501040"></trkpt>
<trkpt lat="46.500900" lon="10.501170"></trkpt>
<trkpt lat="46.501000" lon="10.501300"></trkpt>
<trkpt lat="46.501100" lon="10.501430"></trkpt>
<trkpt lat="46.501200" lon="10.501560"></trkpt>
<trkpt lat="46.501300" lon="10.501690"></trkpt>
<trkpt lat="46.501400" lon="10.501820"></trkpt>
<trkpt lat="46.501500" lon="10.501950"></trkpt>
<trkpt lat="46.501600" lon="10.502080"></trkpt>
<trkpt lat="46.501700" lon="10.502210"></trkpt>
<trkpt lat="46.501800" lon="10.502340"></trkpt>
<trkpt lat="46.501900" lon="10.502470"></trkpt>
<trkpt lat="46.502000" lon="10.502600"></trkpt>
<trkpt lat="46.502100" lon="10.502730"></trkpt>
<trkpt lat="46.502200" lon="10.502860"></trkpt>
<trkpt lat="46.502300" lon="10.502990"></trkpt>
<trkpt lat="46.502400" lon="10.503120"></trkpt>
<trkpt lat="46.502500" lon="10.503250"></trkpt>
<trkpt lat="46.502600" lon="10.503380"></trkpt>
<trkpt lat="46.502700" lon="10.503510"></trkpt>
<trkpt lat="46.502800" lon="10.503640"></trkpt>
<trkpt lat="46.502900" lon="10.503770"></trkpt>
<trkpt lat="46.503000" lon="10.503900"></trkpt>
<trkpt lat="46.503100" lon="10.504030"></trkpt>
<trkpt lat="46.503200" lon="10.504160"></trkpt>
<trkpt lat="46.503300" lon="10.504290"></trkpt>
<trkpt lat="46.503400" lon="10.504420"></trkpt>
<trkpt lat="46.503500" lon="10.504550"></trkpt>
<trkpt lat="46.503600" lon="10.504680"></trkpt>
<trkpt lat="46.503700" lon="10.504810"></trkpt>
<trkpt lat="46.503800" lon="10.504940"></trkpt>
<trkpt lat="46.503900" lon="10.505070"></trkpt>
<trkpt lat="46.504000" lon="10.505200"></trkpt>
<trkpt lat="46.504100" lon="10.505330"></trkpt>
<trkpt lat="46.504200" lon="10.505460"></trkpt>
<trkpt lat="46.504300" lon="10.505590"></trkpt>
<trkpt lat="46.504400" lon="10.505720"></trkpt>
<trkpt lat="46.504500" lon="10.505850"></trkpt>
<trkpt lat="46.504600" lon="10.505980"></trkpt>
<trkpt lat="46.504700" lon="10.506110"></trkpt>
<trkpt lat="46.504800" lon="10.506240"></trkpt>
<trkpt lat="46.504900" lon="10.506370"></trkpt>
<trkpt lat="46.505000" lon="10.506500"></trkpt>
<trkpt lat="46.505100" lon="10.506630"></trkpt>
<trkpt lat="46.505200" lon="10.506760"></trkpt>
<trkpt lat="46.505300" lon="10.506890"></trkpt>
<trkpt lat="46.505400" lon="10.507020"></trkpt>
<trkpt lat="46.505500" lon="10.507150"></trkpt>
<trkpt lat="46.505600" lon="10.507280"></trkpt>
<trkpt lat="46.505700" lon="10.507410"></trkpt>
<trkpt lat="46.505800" lon="10.507540"></trkpt>
<trkpt lat="46.505900" lon="10.507670"></trkpt>
<trkpt lat="46.506000" lon="10.507800"></trkpt>
<trkpt lat="46.506100" lon="10.507930"></trkpt>
<trkpt lat="46.506200" lon="10.508060"></trkpt>
<trkpt lat="46.506300" lon="10.508190"></trkpt>
<trkpt lat="46.506400" lon="10.508320"></trkpt>
<trkpt lat="46.506500" lon="10.508450"></trkpt>
<trkpt lat="46.506600" lon="10.508580"></trkpt>
<trkpt lat="46.506700" lon="10.508710"></trkpt>
<trkpt lat="46.506800" lon="10.508840"></trkpt>
<trkpt lat="46.506900" lon="10.508970"></trkpt>
<trkpt lat="46.507000" lon="10.509100"></trkpt>
<trkpt lat="46.507100" lon="10.509230"></trkpt>
<trkpt lat="46.507200" lon="10.509360"></trkpt>
<trkpt lat="46.507300" lon="10.509490"></trkpt>
<trkpt lat="46.507400" lon="10.509620"></trkpt>
<trkpt lat="46.507500" lon="10.509750"></trkpt>
<trkpt lat="46.507600" lon="10.509880"></trkpt>
<trkpt lat="46.507700" lon="10.510010"></trkpt>
<trkpt lat="46.507800" lon="10.510140"></trkpt>
<trkpt lat="46.507900" lon="10.510270"></trkpt>
<trkpt lat="46.508000" lon="10.510400"></trkpt>
<trkpt lat="46.508100" lon="10.510530"></trkpt>
<trkpt lat="46.508200" lon="10.510660"></trkpt>
<trkpt lat="46.508300" lon="10.510790"></trkpt>
<trkpt lat="46.508400" lon="10.510920"></trkpt>
<trkpt lat="46.508500" lon="10.511050"></trkpt>
<trkpt lat="46.508600" lon="10.511180"></trkpt>
<trkpt lat="46.508700" lon="10.511310"></trkpt>
<trkpt lat="46.508800" lon="10.511440"></trkpt>
<trkpt lat="46.508900" lon="10.511570"></trkpt>
<trkpt lat="46.509000" lon="10.511700"></trkpt>
<trkpt lat="46.509100" lon="10.511830"></trkpt>
<trkpt lat="46.509200" lon="10.511960"></trkpt>
<trkpt lat="46.509300" lon="10.512090"></trkpt>
<trkpt lat="46.509400" lon="10.512220"></trkpt>
<trkpt lat="46.509500" lon="10.512350"></trkpt>
<trkpt lat="46.509600" lon="10.512480"></trkpt>
<trkpt lat="46.509700" lon="10.512610"></trkpt>
<trkpt lat="46.509800" lon="10.512740"></trkpt>
<trkpt lat="46.509900" lon="10.512870"></trkpt>
<trkpt lat="46.510000" lon="10.513000"></trkpt>
<trkpt lat="46.510100" lon="10.513130"></trkpt>
<trkpt lat="46.510200" lon="10.513260"></trkpt>
<trkpt lat="46.510300" lon="10.513390"></trkpt>
<trkpt lat="46.510400" lon="10.513520"></trkpt>
<trkpt lat="46.510500" lon="10.513650"></trkpt>
<trkpt lat="46.510600" lon="10.513780"></trkpt>
<trkpt lat="46.510700" lon="10.513910"></trkpt>
<trkpt lat="46.510800" lon="10.514040"></trkpt>
<trkpt lat="46.510900" lon="10.514170"></trkpt>
<trkpt lat="46.511000" lon="10.514300"></trkpt>
<trkpt lat="46.511100" lon="10.514430"></trkpt>
<trkpt lat="46.511200" lon="10.514560"></trkpt>
<trkpt lat="46.511300" lon="10.514690"></trkpt>
<trkpt lat="46.511400" lon="10.514820"></trkpt>
<trkpt lat="46.511500" lon="10.514950"></trkpt>
<trkpt lat="46.511600" lon="10.515080"></trkpt>
<trkpt lat="46.511700" lon="10.515210"></trkpt>
<trkpt lat="46.511800" lon="10.515340"></trkpt>
<trkpt lat="46.511900" lon="10.515470"></trkpt>
<trkpt lat="46.512000" lon="10.515600"></trkpt>
<trkpt lat="46.512100" lon="10.515730"></trkpt>
<trkpt lat="46.512200" lon="10.515860"></trkpt>
<trkpt lat="46.512300" lon="10.515990"></trkpt>
<trkpt lat="46.512400" lon="10.516120"></trkpt>
<trkpt lat="46.512500" lon="10.516250"></trkpt>
<trkpt lat="46.512600" lon="10.516380"></trkpt>
<trkpt lat="46.512700" lon="10.516510"></trkpt>
<trkpt lat="46.512800" lon="10.516640"></trkpt>
<trkpt lat="46.512900" lon="10.516770"></trkpt>
<trkpt lat="46.513000" lon="10.516900"></trkpt>
<trkpt lat="46.513100" lon="10.517030"></trkpt>
<trkpt lat="46.513200" lon="10.517160"></trkpt>
<trkpt lat="46.513300" lon="10.517290"></trkpt>
<trkpt lat="46.513400" lon="10.517420"></trkpt>
<trkpt lat="46.513500" lon="10.517550"></trkpt>
<trkpt lat="46.513600" lon="10.517680"></trkpt>
<trkpt lat="46.513700" lon="10.517810"></trkpt>
<trkpt lat="46.513800" lon="10.517940"></trkpt>
<trkpt lat="46.513900" lon="10.518070"></trkpt>
<trkpt lat="46.514000" lon="10.518200"></trkpt>
<trkpt lat="46.514100" lon="10.518330"></trkpt>
<trkpt lat="46.514200" lon="10.518460"></trkpt>
<trkpt lat="46.514300" lon="10.518590"></trkpt>
<trkpt lat="46.514400" lon="10.518720"></trkpt>
<trkpt lat="46.514500" lon="10.518850"></trkpt>
<trkpt lat="46.514600" lon="10.518980"></trkpt>
<trkpt lat="46.514700" lon="10.519110"></trkpt>
<trkpt lat="46.514800" lon="10.519240"></trkpt>
<trkpt lat="46.514900" lon="10.519370"></trkpt>
<trkpt lat="46.515000" lon="10.519500"></trkpt>
<trkpt lat="46.515100" lon="10.519630"></trkpt>
<trkpt lat="46.515200" lon="10.519760"></trkpt>
<trkpt lat="46.515300" lon="10.519890"></trkpt>
<trkpt lat="46.515400" lon="10.520020"></trkpt>
<trkpt lat="46.515500" lon="10.520150"></trkpt>
<trkpt lat="46.515600" lon="10.520280"></trkpt>
<trkpt lat="46.515700" lon="10.520410"></trkpt>
<trkpt lat="46.515800" lon="10.520540"></trkpt>
<trkpt lat="46.515900" lon="10.520670"></trkpt>
<trkpt lat="46.516000" lon="10.520800"></trkpt>
<trkpt lat="46.516100" lon="10.520930"></trkpt>
<trkpt lat="46.516200" lon="10.521060"></trkpt>
<trkpt lat="46.516300" lon="10.521190"></trkpt>
<trkpt lat="46.516400" lon="10.521320"></trkpt>
<trkpt lat="46.516500" lon="10.521450"></trkpt>
<trkpt lat="46.516600" lon="10.521580"></trkpt>
<trkpt lat="46.516700" lon="10.521710"></trkpt>
<trkpt lat="46.516800" lon="10.521840"></trkpt>
<trkpt lat="46.516900" lon="10.521970"></trkpt>
<trkpt lat="46.517000" lon="10.522100"></trkpt>
<trkpt lat="46.517100" lon="10.522230"></trkpt>
<trkpt lat="46.517200" lon="10.522360"></trkpt>
<trkpt lat="46.517300" lon="10.522490"></trkpt>
<trkpt lat="46.517400" lon="10.522620"></trkpt>
<trkpt lat="46.517500" lon="10.522750"></trkpt>
<trkpt lat="46.517600" lon="10.522880"></trkpt>
<trkpt lat="46.517700" lon="10.523010"></trkpt>
<trkpt lat="46.517800" lon="10.523140"></trkpt>
<trkpt lat="46.517900" lon="10.523270"></trkpt>
<trkpt lat="46.518000" lon="10.523400"></trkpt>
<trkpt lat="46.518100" lon="10.523530"></trkpt>
<trkpt lat="46.518200" lon="10.523660"></trkpt>
<trkpt lat="46.518300" lon="10.523790"></trkpt>
<trkpt lat="46.518400" lon="10.523920"></trkpt>
<trkpt lat="46.518500" lon="10.524050"></trkpt>
<trkpt lat="46.518600" lon="10.524180"></trkpt>
<trkpt lat="46.518700" lon="10.524310"></trkpt>
<trkpt lat="46.518800" lon="10.524440"></trkpt>
<trkpt lat="46.518900" lon="10.524570"></trkpt>
<trkpt lat="46.519000" lon="10.524700"></trkpt>
<trkpt lat="46.519100" lon="10.524830"></trkpt>
<trkpt lat="46.519200" lon="10.524960"></trkpt>
<trkpt lat="46.519300" lon="10.525090"></trkpt>
<trkpt lat="46.519400" lon="10.525220"></trkpt>
<trkpt lat="46.519500" lon="10.525350"></trkpt>
<trkpt lat="46.519600" lon="10.525480"></trkpt>
<trkpt lat="46.519700" lon="10.525610"></trkpt>
<trkpt lat="46.519800" lon="10.525740"></trkpt>
<trkpt lat="46.519900" lon="10.525870"></trkpt>
<trkpt lat="46.520000" lon="10.526000"></trkpt>
<trkpt lat="46.520100" lon="10.526130"></trkpt>
<trkpt lat="46.520200" lon="10.526260"></trkpt>
<trkpt lat="46.520300" lon="10.526390"></trkpt>
<trkpt lat="46.520400" lon="10.526520"></trkpt>
<trkpt lat="46.520500" lon="10.526650"></trkpt>
<trkpt lat="46.520600" lon="10.526780"></trkpt>
<trkpt lat="46.520700" lon="10.526910"></trkpt>
<trkpt lat="46.520800" lon="10.527040"></trkpt>
<trkpt lat="46.520900" lon="10.527170"></trkpt>
<trkpt lat="46.521000" lon="10.527300"></trkpt>
<trkpt lat="46.521100" lon="10.527430"></trkpt>
<trkpt lat="46.521200" lon="10.527560"></trkpt>
<trkpt lat="46.521300" lon="10.527690"></trkpt>
<trkpt lat="46.521400" lon="10.527820"></trkpt>
<trkpt lat="46.521500" lon="10.527950"></trkpt>
<trkpt lat="46.521600" lon="10.528080"></trkpt>
<trkpt lat="46.521700" lon="10.528210"></trkpt>
<trkpt lat="46.521800" lon="10.528340"></trkpt>
<trkpt lat="46.521900" lon="10.528470"></trkpt>
<trkpt lat="46.522000" lon="10.528600"></trkpt>
<trkpt lat="46.522100" lon="10.528730"></trkpt>
<trkpt lat="46.522200" lon="10.528860"></trkpt>
<trkpt lat="46.522300" lon="10.528990"></trkpt>
<trkpt lat="46.522400" lon="10.529120"></trkpt>
<trkpt lat="46.522500" lon="10.529250"></trkpt>
<trkpt lat="46.522600" lon="10.529380"></trkpt>
<trkpt lat="46.522700" lon="10.529510"></trkpt>
<trkpt lat="46.522800" lon="10.529640"></trkpt>
<trkpt lat="46.522900" lon="10.529770"></trkpt>
<trkpt lat="46.523000" lon="10.529900"></trkpt>
<trkpt lat="46.523100" lon="10.530030"></trkpt>
<trkpt lat="46.523200" lon="10.530160"></trkpt>
<trkpt lat="46.523300" lon="10.530290"></trkpt>
<trkpt lat="46.523400" lon="10.530420"></trkpt>
<trkpt lat="46.523500" lon="10.530550"></trkpt>
<trkpt lat="46.523600" lon="10.530680"></trkpt>
<trkpt lat="46.523700" lon="10.530810"></trkpt>
<trkpt lat="46.523800" lon="10.530940"></trkpt>
<trkpt lat="46.523900" lon="10.531070"></trkpt>
<trkpt lat="46.524000" lon="10.531200"></trkpt>
<trkpt lat="46.524100" lon="10.531330"></trkpt>
<trkpt lat="46.524200" lon="10.531460"></trkpt>
<trkpt lat="46.524300" lon="10.531590"></trkpt>
<trkpt lat="46.524400" lon="10.531720"></trkpt>
<trkpt lat="46.524500" lon="10.531850"></trkpt>
<trkpt lat="46.524600" lon="10.531980"></trkpt>
<trkpt lat="46.524700" lon="10.532110"></trkpt>
<trkpt lat="46.524800" lon="10.532240"></trkpt>
<trkpt lat="46.524900" lon="10.532370"></trkpt>
<trkpt lat="46.525000" lon="10.532500"></trkpt>
<trkpt lat="46.525100" lon="10.532630"></trkpt>
<trkpt lat="46.525200" lon="10.532760"></trkpt>
<trkpt lat="46.525300" lon="10.532890"></trkpt>
<trkpt lat="46.525400" lon="10.533020"></trkpt>
<trkpt lat="46.525500" lon="10.533150"></trkpt>
<trkpt lat="46.525600" lon="10.533280"></trkpt>
<trkpt lat="46.525700" lon="10.533410"></trkpt>
<trkpt lat="46.525800" lon="10.533540"></trkpt>
<trkpt lat="46.525900" lon="10.533670"></trkpt>
<trkpt lat="46.526000" lon="10.533800"></trkpt>
<trkpt lat="46.526100" lon="10.533930"></trkpt>
<trkpt lat="46.526200" lon="10.534060"></trkpt>
<trkpt lat="46.526300" lon="10.534190"></trkpt>
<trkpt lat="46.526400" lon="10.534320"></trkpt>
<trkpt lat="46.526500" lon="10.534450"></trkpt>
<trkpt lat="46.526600" lon="10.534580"></trkpt>
<trkpt lat="46.526700" lon="10.534710"></trkpt>
<trkpt lat="46.526800" lon="10.534840"></trkpt>
<trkpt lat="46.526900" lon="10.534970"></trkpt>
<trkpt lat="46.527000" lon="10.535100"></trkpt>
<trkpt lat="46.527100" lon="10.535230"></trkpt>
<trkpt lat="46.527200" lon="10.535360"></trkpt>
<trkpt lat="46.527300" lon="10.535490"></trkpt>
<trkpt lat="46.527400" lon="10.535620"></trkpt>
<trkpt lat="46.527500" lon="10.535750"></trkpt>
<trkpt lat="46.527600" lon="10.535880"></trkpt>
<trkpt lat="46.527700" lon="10.536010"></trkpt>
<trkpt lat="46.527800" lon="10.536140"></trkpt>
<trkpt lat="46.527900" lon="10.536270"></trkpt>
<trkpt lat="46.528000" lon="10.536400"></trkpt>
<trkpt lat="46.528100" lon="10.536530"></trkpt>
<trkpt lat="46.528200" lon="10.536660"></trkpt>
<trkpt lat="46.528300" lon="10.536790"></trkpt>
<trkpt lat="46.528400" lon="10.536920"></trkpt>
<trkpt lat="46.528500" lon="10.537050"></trkpt>
<trkpt lat="46.528600" lon="10.537180"></trkpt>
<trkpt lat="46.528700" lon="10.537310"></trkpt>
<trkpt lat="46.528800" lon="10.537440"></trkpt>
<trkpt lat="46.528900" lon="10.537570"></trkpt>
<trkpt lat="46.529000" lon="10.537700"></trkpt>
<trkpt lat="46.529100" lon="10.537830"></trkpt>
<trkpt lat="46.529200" lon="10.537960"></trkpt>
<trkpt lat="46.529300" lon="10.538090"></trkpt>
<trkpt lat="46.529400" lon="10.538220"></trkpt>
<trkpt lat="46.529500" lon="10.538350"></trkpt>
<trkpt lat="46.529600" lon="10.538480"></trkpt>
<trkpt lat="46.529700" lon="10.538610"></trkpt>
<trkpt lat="46.529800" lon="10.538740"></trkpt>
<trkpt lat="46.529900" lon="10.538870"></trkpt>
</trkseg></trk></gpx>